{
  "type": "FeatureCollection",
  "features": [
    {
      "type": "Feature",
      "properties": {
        "norad_id": 57400,
        "name": "TIANMU-1 08",
        "group": "weather",
        "lat": 14.584295811865024,
        "lon": 25.601264263902188,
        "alt_km": 483.66259595059,
        "timestamp": "2025-12-03T15:48:02.748590+00:00",
        "meta_object_name": "TIANMU-1 08",
        "meta_object_id": "2023-101B",
        "meta_epoch": "2025-12-03T07:52:38.169984",
        "meta_mean_motion": 15.27837138,
        "meta_eccentricity": 0.00074673,
        "meta_inclination": 97.2884,
        "meta_ra_of_asc_node": 27.1868,
        "meta_arg_of_pericenter": 110.3411,
        "meta_mean_anomaly": 249.8632,
        "meta_ephemeris_type": 0,
        "meta_classification_type": "U",
        "meta_norad_cat_id": 57400,
        "meta_element_set_no": 999,
        "meta_rev_at_epoch": 13171,
        "meta_bstar": 0.00035459751,
        "meta_mean_motion_dot": 9.576e-05,
        "meta_mean_motion_ddot": 0,
        "tle_line1": "1 57400U 23101B   25337.32821956  .00009576  00000+0  35460-3 0  9996",
        "tle_line2": "2 57400  97.2884  27.1868 0007467 110.3411 249.8632 15.27837138131715"
      },
      "geometry": {
        "type": "Point",
        "coordinates": [
          25.601264263902188,
          14.584295811865024
        ]
      }
    },
    {
      "type": "Feature",
      "properties": {
        "norad_id": 57401,
        "name": "TIANMU-1 09",
        "group": "weather",
        "lat": 81.9874241904653,
        "lon": -38.29632585425597,
        "alt_km": 470.4406176673101,
        "timestamp": "2025-12-03T15:48:02.748600+00:00",
        "meta_object_name": "TIANMU-1 09",
        "meta_object_id": "2023-101C",
        "meta_epoch": "2025-12-03T09:08:08.649888",
        "meta_mean_motion": 15.27860251,
        "meta_eccentricity": 0.00067505,
        "meta_inclination": 97.2841,
        "meta_ra_of_asc_node": 26.7565,
        "meta_arg_of_pericenter": 109.2927,
        "meta_mean_anomaly": 250.9043,
        "meta_ephemeris_type": 0,
        "meta_classification_type": "U",
        "meta_norad_cat_id": 57401,
        "meta_element_set_no": 999,
        "meta_rev_at_epoch": 13172,
        "meta_bstar": 0.0003739117,
        "meta_mean_motion_dot": 0.00010108,
        "meta_mean_motion_ddot": 0,
        "tle_line1": "1 57401U 23101C   25337.38065567  .00010108  00000+0  37391-3 0  9999",
        "tle_line2": "2 57401  97.2841  26.7565 0006750 109.2927 250.9043 15.27860251131723"
      },
      "geometry": {
        "type": "Point",
        "coordinates": [
          -38.29632585425597,
          81.9874241904653
        ]
      }
    },
    {
      "type": "Feature",
      "properties": {
        "norad_id": 57402,
        "name": "TIANMU-1 10",
        "group": "weather",
        "lat": -76.82147721001658,
        "lon": 174.71452528475152,
        "alt_km": 494.5871886494597,
        "timestamp": "2025-12-03T15:48:02.748609+00:00",
        "meta_object_name": "TIANMU-1 10",
        "meta_object_id": "2023-101D",
        "meta_epoch": "2025-12-03T06:48:43.072704",
        "meta_mean_motion": 15.27849181,
        "meta_eccentricity": 0.00084905,
        "meta_inclination": 97.2922,
        "meta_ra_of_asc_node": 27.5017,
        "meta_arg_of_pericenter": 110.886,
        "meta_mean_anomaly": 249.3289,
        "meta_ephemeris_type": 0,
        "meta_classification_type": "U",
        "meta_norad_cat_id": 57402,
        "meta_element_set_no": 999,
        "meta_rev_at_epoch": 13170,
        "meta_bstar": 0.00038487766,
        "meta_mean_motion_dot": 0.00010407,
        "meta_mean_motion_ddot": 0,
        "tle_line1": "1 57402U 23101D   25337.28383186  .00010407  00000+0  38488-3 0  9999",
        "tle_line2": "2 57402  97.2922  27.5017 0008490 110.8860 249.3289 15.27849181131703"
      },
      "geometry": {
        "type": "Point",
        "coordinates": [
          174.71452528475152,
          -76.82147721001658
        ]
      }
    },
    {
      "type": "Feature",
      "properties": {
        "norad_id": 57490,
        "name": "FENGYUN 3F",
        "group": "weather",
        "lat": 80.403308770641,
        "lon": -18.94395516792512,
        "alt_km": 817.7963562571649,
        "timestamp": "2025-12-03T15:48:02.748620+00:00",
        "meta_object_name": "FENGYUN 3F",
        "meta_object_id": "2023-111A",
        "meta_epoch": "2025-12-03T06:56:28.815360",
        "meta_mean_motion": 14.19889515,
        "meta_eccentricity": 6.94e-05,
        "meta_inclination": 98.7095,
        "meta_ra_of_asc_node": 45.7347,
        "meta_arg_of_pericenter": 86.0195,
        "meta_mean_anomaly": 274.1061,
        "meta_ephemeris_type": 0,
        "meta_classification_type": "U",
        "meta_norad_cat_id": 57490,
        "meta_element_set_no": 999,
        "meta_rev_at_epoch": 12106,
        "meta_bstar": 9.6652515e-05,
        "meta_mean_motion_dot": 1.61e-06,
        "meta_mean_motion_ddot": 0,
        "tle_line1": "1 57490U 23111A   25337.28922240  .00000161  00000+0  96653-4 0  9992",
        "tle_line2": "2 57490  98.7095  45.7347 0000694  86.0195 274.1061 14.19889515121065"
      },
      "geometry": {
        "type": "Point",
        "coordinates": [
          -18.94395516792512,
          80.403308770641
        ]
      }
    },
    {
      "type": "Feature",
      "properties": {
        "norad_id": 58584,
        "name": "ARKTIKA-M 2",
        "group": "weather",
        "lat": 60.31506311512161,
        "lon": -66.52051576215614,
        "alt_km": 35241.66381239976,
        "timestamp": "2025-12-03T15:48:02.748630+00:00",
        "meta_object_name": "ARKTIKA-M 2",
        "meta_object_id": "2023-198A",
        "meta_epoch": "2025-12-01T08:43:04.634112",
        "meta_mean_motion": 2.00605427,
        "meta_eccentricity": 0.68640288,
        "meta_inclination": 63.2218,
        "meta_ra_of_asc_node": 176.1298,
        "meta_arg_of_pericenter": 268.1507,
        "meta_mean_anomaly": 18.8441,
        "meta_ephemeris_type": 0,
        "meta_classification_type": "U",
        "meta_norad_cat_id": 58584,
        "meta_element_set_no": 999,
        "meta_rev_at_epoch": 1435,
        "meta_bstar": 0,
        "meta_mean_motion_dot": 2.37e-06,
        "meta_mean_motion_ddot": 0,
        "tle_line1": "1 58584U 23198A   25335.36324808  .00000237  00000+0  00000+0 0  9995",
        "tle_line2": "2 58584  63.2218 176.1298 6864028 268.1507  18.8441  2.00605427 14356"
      },
      "geometry": {
        "type": "Point",
        "coordinates": [
          -66.52051576215614,
          60.31506311512161
        ]
      }
    },
    {
      "type": "Feature",
      "properties": {
        "norad_id": 58645,
        "name": "TIANMU-1 11",
        "group": "weather",
        "lat": -10.836591890816162,
        "lon": 176.02483181034913,
        "alt_km": 502.44436516419864,
        "timestamp": "2025-12-03T15:48:02.748641+00:00",
        "meta_object_name": "TIANMU-1 11",
        "meta_object_id": "2023-205A",
        "meta_epoch": "2025-12-03T07:05:20.871744",
        "meta_mean_motion": 15.24414048,
        "meta_eccentricity": 0.00088547,
        "meta_inclination": 97.3612,
        "meta_ra_of_asc_node": 357.0863,
        "meta_arg_of_pericenter": 347.3453,
        "meta_mean_anomaly": 12.7561,
        "meta_ephemeris_type": 0,
        "meta_classification_type": "U",
        "meta_norad_cat_id": 58645,
        "meta_element_set_no": 999,
        "meta_rev_at_epoch": 10765,
        "meta_bstar": 0.00033120335,
        "meta_mean_motion_dot": 8.061e-05,
        "meta_mean_motion_ddot": 0,
        "tle_line1": "1 58645U 23205A   25337.29538046  .00008061  00000+0  33120-3 0  9993",
        "tle_line2": "2 58645  97.3612 357.0863 0008854 347.3453  12.7561 15.24414048107658"
      },
      "geometry": {
        "type": "Point",
        "coordinates": [
          176.02483181034913,
          -10.836591890816162
        ]
      }
    },
    {
      "type": "Feature",
      "properties": {
        "norad_id": 58646,
        "name": "TIANMU-1 12",
        "group": "weather",
        "lat": 45.922164880482875,
        "lon": -10.41992116889272,
        "alt_km": 487.641741927825,
        "timestamp": "2025-12-03T15:48:02.748650+00:00",
        "meta_object_name": "TIANMU-1 12",
        "meta_object_id": "2023-205B",
        "meta_epoch": "2025-12-03T07:43:14.276928",
        "meta_mean_motion": 15.24327904,
        "meta_eccentricity": 0.0006648,
        "meta_inclination": 97.36,
        "meta_ra_of_asc_node": 356.9206,
        "meta_arg_of_pericenter": 333.1009,
        "meta_mean_anomaly": 26.9883,
        "meta_ephemeris_type": 0,
        "meta_classification_type": "U",
        "meta_norad_cat_id": 58646,
        "meta_element_set_no": 999,
        "meta_rev_at_epoch": 10764,
        "meta_bstar": 0.00035281457,
        "meta_mean_motion_dot": 8.566e-05,
        "meta_mean_motion_ddot": 0,
        "tle_line1": "1 58646U 23205B   25337.32169302  .00008566  00000+0  35281-3 0  9993",
        "tle_line2": "2 58646  97.3600 356.9206 0006648 333.1009  26.9883 15.24327904107641"
      },
      "geometry": {
        "type": "Point",
        "coordinates": [
          -10.41992116889272,
          45.922164880482875
        ]
      }
    }
  ]
}